{"type":"FeatureCollection","name":"regional-atlas-labels-v1","features":[{"type":"Feature","properties":{"region":"andes_southern_south_america","display_name":"Andes and Southern South America","progressing":true},"geometry":{"type":"Point","coordinates":[-62.99093,-31.64158]}},{"type":"Feature","properties":{"region":"australasia","display_name":"Australasia","progressing":true},"geometry":{"type":"Point","coordinates":[133.09881,-24.95542]}},{"type":"Feature","properties":{"region":"boreal_europe","display_name":"Boreal Europe","progressing":true},"geometry":{"type":"Point","coordinates":[13.66642,63.24944]}},{"type":"Feature","properties":{"region":"caribbean","display_name":"Caribbean","progressing":true},"geometry":{"type":"Point","coordinates":[-70.54389,18.82386]}},{"type":"Feature","properties":{"region":"central_asia","display_name":"Central Asia","progressing":true},"geometry":{"type":"Point","coordinates":[63.60382,40.19272]}},{"type":"Feature","properties":{"region":"east_africa","display_name":"East Africa","progressing":true},"geometry":{"type":"Point","coordinates":[38.82673,3.27581]}},{"type":"Feature","properties":{"region":"eastern_europe_steppe","display_name":"Eastern Europe / Steppe","progressing":true},"geometry":{"type":"Point","coordinates":[31.03751,48.73568]}},{"type":"Feature","properties":{"region":"indian_subcontinent","display_name":"Indian Subcontinent","progressing":true},"geometry":{"type":"Point","coordinates":[80.32351,22.5741]}},{"type":"Feature","properties":{"region":"insular_southeast_asia","display_name":"Insular Southeast Asia","progressing":true},"geometry":{"type":"Point","coordinates":[113.36365,0.06444]}},{"type":"Feature","properties":{"region":"madagascar_west_indian_ocean","display_name":"Madagascar and Western Indian Ocean","progressing":true},"geometry":{"type":"Point","coordinates":[46.72199,-18.61521]}},{"type":"Feature","properties":{"region":"maghreb_sahara","display_name":"Maghreb and Sahara","progressing":true},"geometry":{"type":"Point","coordinates":[9.91582,25.95964]}},{"type":"Feature","properties":{"region":"mainland_southeast_asia","display_name":"Mainland Southeast Asia","progressing":true},"geometry":{"type":"Point","coordinates":[103.35865,15.0164]}},{"type":"Feature","properties":{"region":"mediterranean_europe","display_name":"Mediterranean Europe","progressing":true},"geometry":{"type":"Point","coordinates":[-4.51453,39.849]}},{"type":"Feature","properties":{"region":"mesoamerica","display_name":"Mesoamerica","progressing":true},"geometry":{"type":"Point","coordinates":[-100.99007,19.94347]}},{"type":"Feature","properties":{"region":"middle_east_arabia","display_name":"Middle East and Arabia","progressing":true},"geometry":{"type":"Point","coordinates":[41.84477,28.08263]}},{"type":"Feature","properties":{"region":"new_zealand_pacific","display_name":"New Zealand and Pacific","progressing":true},"geometry":{"type":"Point","coordinates":[171.25437,-43.58766]}},{"type":"Feature","properties":{"region":"sahel","display_name":"Sahel","progressing":true},"geometry":{"type":"Point","coordinates":[15.77703,16.21663]}},{"type":"Feature","properties":{"region":"siberia_boreal_asia","display_name":"Siberia and Boreal Asia","progressing":true},"geometry":{"type":"Point","coordinates":[88.38775,59.47667]}},{"type":"Feature","properties":{"region":"southern_africa","display_name":"Southern Africa","progressing":true},"geometry":{"type":"Point","coordinates":[23.95414,-20.30128]}},{"type":"Feature","properties":{"region":"temperate_boreal_north_america","display_name":"Temperate / Boreal North America","progressing":true},"geometry":{"type":"Point","coordinates":[-95.85557,48.5656]}},{"type":"Feature","properties":{"region":"temperate_east_asia","display_name":"Temperate East Asia","progressing":true},"geometry":{"type":"Point","coordinates":[98.54637,36.90256]}},{"type":"Feature","properties":{"region":"temperate_europe","display_name":"Temperate Europe","progressing":true},"geometry":{"type":"Point","coordinates":[12.5644,50.2036]}},{"type":"Feature","properties":{"region":"tropical_north_south_america_amazon","display_name":"Tropical Northern South America / Amazon","progressing":true},"geometry":{"type":"Point","coordinates":[-50.9869,-10.58454]}},{"type":"Feature","properties":{"region":"west_central_tropical_africa","display_name":"West / Central Tropical Africa","progressing":true},"geometry":{"type":"Point","coordinates":[19.77901,0.23947]}}]}
